[{"OBJECT_NAME":"ONEWEB-0200","OBJECT_ID":"2021-031AL","EPOCH":"2026-05-01T22:04:46.977888","MEAN_MOTION":13.14503654,"ECCENTRICITY":0.0001617,"INCLINATION":87.8923,"RA_OF_ASC_NODE":298.9246,"ARG_OF_PERICENTER":92.4569,"MEAN_ANOMALY":267.6746,"EPHEMERIS_TYPE":0,"CLASSIFICATION_TYPE":"U","NORAD_CAT_ID":48244,"ELEMENT_SET_NO":999,"REV_AT_EPOCH":24215,"BSTAR":1.7692e-05,"MEAN_MOTION_DOT":1.9e-07,"MEAN_MOTION_DDOT":0.0},{"OBJECT_NAME":"ONEWEB-0217","OBJECT_ID":"2021-031AM","EPOCH":"2026-05-01T22:27:37.486656","MEAN_MOTION":13.14503538,"ECCENTRICITY":0.0001438,"INCLINATION":87.893,"RA_OF_ASC_NODE":298.9236,"ARG_OF_PERICENTER":84.2949,"MEAN_ANOMALY":275.8345,"EPHEMERIS_TYPE":0,"CLASSIFICATION_TYPE":"U","NORAD_CAT_ID":48245,"ELEMENT_SET_NO":999,"REV_AT_EPOCH":24210,"BSTAR":0.0006320599999999999,"MEAN_MOTION_DOT":2.47e-06,"MEAN_MOTION_DDOT":0.0},{"OBJECT_NAME":"ONEWEB-0211","OBJECT_ID":"2021-045A","EPOCH":"2026-05-02T02:56:52.804032","MEAN_MOTION":13.16194719,"ECCENTRICITY":0.0001523,"INCLINATION":87.8963,"RA_OF_ASC_NODE":268.2758,"ARG_OF_PERICENTER":76.9697,"MEAN_ANOMALY":283.1603,"EPHEMERIS_TYPE":0,"CLASSIFICATION_TYPE":"U","NORAD_CAT_ID":48767,"ELEMENT_SET_NO":999,"REV_AT_EPOCH":23838,"BSTAR":-0.00010489,"MEAN_MOTION_DOT":-2.7e-07,"MEAN_MOTION_DDOT":0.0},{"OBJECT_NAME":"ONEWEB-0223","OBJECT_ID":"2021-045B","EPOCH":"2026-05-02T02:27:38.895264","MEAN_MOTION":13.15548713,"ECCENTRICITY":0.0001786,"INCLINATION":87.8967,"RA_OF_ASC_NODE":268.3761,"ARG_OF_PERICENTER":84.0838,"MEAN_ANOMALY":276.0496,"EPHEMERIS_TYPE":0,"CLASSIFICATION_TYPE":"U","NORAD_CAT_ID":48768,"ELEMENT_SET_NO":999,"REV_AT_EPOCH":23834,"BSTAR":0.00022186,"MEAN_MOTION_DOT":9.6e-07,"MEAN_MOTION_DDOT":0.0},{"OBJECT_NAME":"ONEWEB-0230","OBJECT_ID":"2021-045C","EPOCH":"2026-05-02T03:36:06.175872","MEAN_MOTION":13.1554851,"ECCENTRICITY":0.0001899,"INCLINATION":87.8954,"RA_OF_ASC_NODE":268.3845,"ARG_OF_PERICENTER":101.2704,"MEAN_ANOMALY":258.8639,"EPHEMERIS_TYPE":0,"CLASSIFICATION_TYPE":"U","NORAD_CAT_ID":48769,"ELEMENT_SET_NO":999,"REV_AT_EPOCH":23861,"BSTAR":0.00029433,"MEAN_MOTION_DOT":1.24e-06,"MEAN_MOTION_DDOT":0.0},{"OBJECT_NAME":"ONEWEB-0237","OBJECT_ID":"2021-045D","EPOCH":"2026-05-01T21:51:34.365888","MEAN_MOTION":13.15489457,"ECCENTRICITY":0.000208,"INCLINATION":87.8954,"RA_OF_ASC_NODE":268.4342,"ARG_OF_PERICENTER":104.3527,"MEAN_ANOMALY":255.7834,"EPHEMERIS_TYPE":0,"CLASSIFICATION_TYPE":"U","NORAD_CAT_ID":48770,"ELEMENT_SET_NO":999,"REV_AT_EPOCH":23830,"BSTAR":0.030624000000000002,"MEAN_MOTION_DOT":0.00011546,"MEAN_MOTION_DDOT":0.0},{"OBJECT_NAME":"ONEWEB-0235","OBJECT_ID":"2021-045E","EPOCH":"2026-05-02T02:43:35.745024","MEAN_MOTION":13.15549537,"ECCENTRICITY":0.0001857,"INCLINATION":87.8967,"RA_OF_ASC_NODE":268.3746,"ARG_OF_PERICENTER":84.6736,"MEAN_ANOMALY":275.4606,"EPHEMERIS_TYPE":0,"CLASSIFICATION_TYPE":"U","NORAD_CAT_ID":48771,"ELEMENT_SET_NO":999,"REV_AT_EPOCH":23832,"BSTAR":-0.00014886,"MEAN_MOTION_DOT":-4.3e-07,"MEAN_MOTION_DDOT":0.0},{"OBJECT_NAME":"ONEWEB-0242","OBJECT_ID":"2021-045F","EPOCH":"2026-05-02T02:34:27.778080","MEAN_MOTION":13.15549475,"ECCENTRICITY":0.0001926,"INCLINATION":87.8969,"RA_OF_ASC_NODE":268.3722,"ARG_OF_PERICENTER":94.1222,"MEAN_ANOMALY":266.0129,"EPHEMERIS_TYPE":0,"CLASSIFICATION_TYPE":"U","NORAD_CAT_ID":48772,"ELEMENT_SET_NO":999,"REV_AT_EPOCH":23836,"BSTAR":0.00014547,"MEAN_MOTION_DOT":6.8e-07,"MEAN_MOTION_DDOT":0.0},{"OBJECT_NAME":"ONEWEB-0241","OBJECT_ID":"2021-045G","EPOCH":"2026-05-01T22:37:11.938656","MEAN_MOTION":13.15547935,"ECCENTRICITY":0.0001644,"INCLINATION":87.8958,"RA_OF_ASC_NODE":268.4287,"ARG_OF_PERICENTER":85.9833,"MEAN_ANOMALY":274.1486,"EPHEMERIS_TYPE":0,"CLASSIFICATION_TYPE":"U","NORAD_CAT_ID":48773,"ELEMENT_SET_NO":999,"REV_AT_EPOCH":23825,"BSTAR":0.00014727000000000002,"MEAN_MOTION_DOT":6.8e-07,"MEAN_MOTION_DDOT":0.0},{"OBJECT_NAME":"ONEWEB-0243","OBJECT_ID":"2021-045H","EPOCH":"2026-05-02T03:01:52.427136","MEAN_MOTION":13.15548685,"ECCENTRICITY":0.0002278,"INCLINATION":87.8957,"RA_OF_ASC_NODE":268.4034,"ARG_OF_PERICENTER":88.8807,"MEAN_ANOMALY":271.2584,"EPHEMERIS_TYPE":0,"CLASSIFICATION_TYPE":"U","NORAD_CAT_ID":48774,"ELEMENT_SET_NO":999,"REV_AT_EPOCH":23830,"BSTAR":-0.00046618,"MEAN_MOTION_DOT":-1.63e-06,"MEAN_MOTION_DDOT":0.0},{"OBJECT_NAME":"ONEWEB-0222","OBJECT_ID":"2021-045J","EPOCH":"2026-05-02T02:37:54.526368","MEAN_MOTION":13.15548471,"ECCENTRICITY":0.0001755,"INCLINATION":87.8966,"RA_OF_ASC_NODE":268.3711,"ARG_OF_PERICENTER":92.0855,"MEAN_ANOMALY":268.0476,"EPHEMERIS_TYPE":0,"CLASSIFICATION_TYPE":"U","NORAD_CAT_ID":48775,"ELEMENT_SET_NO":999,"REV_AT_EPOCH":23834,"BSTAR":-4.9134e-05,"MEAN_MOTION_DOT":-6e-08,"MEAN_MOTION_DDOT":0.0},{"OBJECT_NAME":"ONEWEB-0244","OBJECT_ID":"2021-045K","EPOCH":"2026-05-02T03:15:33.336000","MEAN_MOTION":13.15548325,"ECCENTRICITY":0.0001872,"INCLINATION":87.8969,"RA_OF_ASC_NODE":268.3577,"ARG_OF_PERICENTER":93.8976,"MEAN_ANOMALY":266.2369,"EPHEMERIS_TYPE":0,"CLASSIFICATION_TYPE":"U","NORAD_CAT_ID":48776,"ELEMENT_SET_NO":999,"REV_AT_EPOCH":23891,"BSTAR":-0.00036637999999999997,"MEAN_MOTION_DOT":-1.25e-06,"MEAN_MOTION_DDOT":0.0},{"OBJECT_NAME":"ONEWEB-0247","OBJECT_ID":"2021-045L","EPOCH":"2026-05-01T21:42:26.172576","MEAN_MOTION":13.15548616,"ECCENTRICITY":0.0002343,"INCLINATION":87.8956,"RA_OF_ASC_NODE":268.4426,"ARG_OF_PERICENTER":79.6467,"MEAN_ANOMALY":280.4927,"EPHEMERIS_TYPE":0,"CLASSIFICATION_TYPE":"U","NORAD_CAT_ID":48777,"ELEMENT_SET_NO":999,"REV_AT_EPOCH":23832,"BSTAR":-0.00019639,"MEAN_MOTION_DOT":-6.1e-07,"MEAN_MOTION_DDOT":0.0},{"OBJECT_NAME":"ONEWEB-0245","OBJECT_ID":"2021-045M","EPOCH":"2026-05-02T03:04:08.966784","MEAN_MOTION":13.15548141,"ECCENTRICITY":0.0001626,"INCLINATION":87.8967,"RA_OF_ASC_NODE":268.3727,"ARG_OF_PERICENTER":92.9776,"MEAN_ANOMALY":267.154,"EPHEMERIS_TYPE":0,"CLASSIFICATION_TYPE":"U","NORAD_CAT_ID":48778,"ELEMENT_SET_NO":999,"REV_AT_EPOCH":23832,"BSTAR":-0.00029447,"MEAN_MOTION_DOT":-9.8e-07,"MEAN_MOTION_DDOT":0.0},{"OBJECT_NAME":"ONEWEB-0229","OBJECT_ID":"2021-045N","EPOCH":"2026-05-02T02:57:17.621568","MEAN_MOTION":13.15548981,"ECCENTRICITY":0.0001953,"INCLINATION":87.8966,"RA_OF_ASC_NODE":268.3719,"ARG_OF_PERICENTER":95.3603,"MEAN_ANOMALY":264.775,"EPHEMERIS_TYPE":0,"CLASSIFICATION_TYPE":"U","NORAD_CAT_ID":48779,"ELEMENT_SET_NO":999,"REV_AT_EPOCH":23835,"BSTAR":-0.00031613,"MEAN_MOTION_DOT":-1.06e-06,"MEAN_MOTION_DDOT":0.0},{"OBJECT_NAME":"ONEWEB-0228","OBJECT_ID":"2021-045P","EPOCH":"2026-05-02T03:45:25.714368","MEAN_MOTION":13.15548209,"ECCENTRICITY":0.0001816,"INCLINATION":87.8973,"RA_OF_ASC_NODE":268.3549,"ARG_OF_PERICENTER":94.6579,"MEAN_ANOMALY":265.4759,"EPHEMERIS_TYPE":0,"CLASSIFICATION_TYPE":"U","NORAD_CAT_ID":48780,"ELEMENT_SET_NO":999,"REV_AT_EPOCH":23827,"BSTAR":0.00017567,"MEAN_MOTION_DOT":7.9e-07,"MEAN_MOTION_DDOT":0.0}]