ONEWEB-0200             
1 48244U 21031AL  26121.91998817  .00000019  00000+0  17692-4 0  9991
2 48244  87.8923 298.9246 0001617  92.4569 267.6746 13.14503654242155
ONEWEB-0217             
1 48245U 21031AM  26121.93585054  .00000247  00000+0  63206-3 0  9993
2 48245  87.8930 298.9236 0001438  84.2949 275.8345 13.14503538242107
ONEWEB-0211             
1 48767U 21045A   26122.12283338 -.00000027  00000+0 -10489-3 0  9992
2 48767  87.8963 268.2758 0001523  76.9697 283.1603 13.16194719238387
ONEWEB-0223             
1 48768U 21045B   26122.10253351  .00000096  00000+0  22186-3 0  9994
2 48768  87.8967 268.3761 0001786  84.0838 276.0496 13.15548713238348
ONEWEB-0230             
1 48769U 21045C   26122.15007148  .00000124  00000+0  29433-3 0  9995
2 48769  87.8954 268.3845 0001899 101.2704 258.8639 13.15548510238619
ONEWEB-0237             
1 48770U 21045D   26121.91081442  .00011546  00000+0  30624-1 0  9991
2 48770  87.8954 268.4342 0002080 104.3527 255.7834 13.15489457238307
ONEWEB-0235             
1 48771U 21045E   26122.11360816 -.00000043  00000+0 -14886-3 0  9996
2 48771  87.8967 268.3746 0001857  84.6736 275.4606 13.15549537238326
ONEWEB-0242             
1 48772U 21045F   26122.10726595  .00000068  00000+0  14547-3 0  9995
2 48772  87.8969 268.3722 0001926  94.1222 266.0129 13.15549475238367
ONEWEB-0241             
1 48773U 21045G   26121.94249929  .00000068  00000+0  14727-3 0  9998
2 48773  87.8958 268.4287 0001644  85.9833 274.1486 13.15547935238259
ONEWEB-0243             
1 48774U 21045H   26122.12630124 -.00000163  00000+0 -46618-3 0  9993
2 48774  87.8957 268.4034 0002278  88.8807 271.2584 13.15548685238302
ONEWEB-0222             
1 48775U 21045J   26122.10965887 -.00000006  00000+0 -49134-4 0  9992
2 48775  87.8966 268.3711 0001755  92.0855 268.0476 13.15548471238344
ONEWEB-0244             
1 48776U 21045K   26122.13580250 -.00000125  00000+0 -36638-3 0  9999
2 48776  87.8969 268.3577 0001872  93.8976 266.2369 13.15548325238913
ONEWEB-0247             
1 48777U 21045L   26121.90446959 -.00000061  00000+0 -19639-3 0  9992
2 48777  87.8956 268.4426 0002343  79.6467 280.4927 13.15548616238321
ONEWEB-0245             
1 48778U 21045M   26122.12788156 -.00000098  00000+0 -29447-3 0  9994
2 48778  87.8967 268.3727 0001626  92.9776 267.1540 13.15548141238327
ONEWEB-0229             
1 48779U 21045N   26122.12312062 -.00000106  00000+0 -31613-3 0  9992
2 48779  87.8966 268.3719 0001953  95.3603 264.7750 13.15548981238358
ONEWEB-0228             
1 48780U 21045P   26122.15654762  .00000079  00000+0  17567-3 0  9992
2 48780  87.8973 268.3549 0001816  94.6579 265.4759 13.15548209238272
